{"type": "FeatureCollection", "features": [ {"type": "Feature", "properties": {"norad_id": 58662, "name": "TIANMU-1 21", "group": "weather", "lat": 23.90904243175749, "lon": 94.97172230725242, "alt_km": 472.6931001380872, "timestamp": "2025-12-10T21:43:21.729799+00:00", "meta": {"OBJECT_NAME": "TIANMU-1 21", "OBJECT_ID": "2023-208C", "EPOCH": "2025-12-10T13:46:37.360992", "MEAN_MOTION": 15.31475186, "ECCENTRICITY": 0.00058674, "INCLINATION": 97.4373, "RA_OF_ASC_NODE": 97.9596, "ARG_OF_PERICENTER": 269.2824, "MEAN_ANOMALY": 90.7745, "EPHEMERIS_TYPE": 0, "CLASSIFICATION_TYPE": "U", "NORAD_CAT_ID": 58662, "ELEMENT_SET_NO": 999, "REV_AT_EPOCH": 10866, "BSTAR": 0.00053186943, "MEAN_MOTION_DOT": 0.00016113, "MEAN_MOTION_DDOT": 0}, "tle": {"line1": "1 58662U 23208C   25344.57404353  .00016113  00000+0  53187-3 0  9999", "line2": "2 58662  97.4373  97.9596 0005867 269.2824  90.7745 15.31475186108660"}}, "geometry": {"type": "Point", "coordinates": [94.97172230725242, 23.90904243175749]}}, {"type": "Feature", "properties": {"norad_id": 58663, "name": "TIANMU-1 22", "group": "weather", "lat": -27.426476906384842, "lon": 99.89306726732227, "alt_km": 487.46237921993634, "timestamp": "2025-12-10T21:43:21.729811+00:00", "meta": {"OBJECT_NAME": "TIANMU-1 22", "OBJECT_ID": "2023-208D", "EPOCH": "2025-12-10T13:58:58.094112", "MEAN_MOTION": 15.27544598, "ECCENTRICITY": 0.00027294, "INCLINATION": 97.4381, "RA_OF_ASC_NODE": 95.684, "ARG_OF_PERICENTER": 298.5008, "MEAN_ANOMALY": 61.5956, "EPHEMERIS_TYPE": 0, "CLASSIFICATION_TYPE": "U", "NORAD_CAT_ID": 58663, "ELEMENT_SET_NO": 999, "REV_AT_EPOCH": 10850, "BSTAR": 0.0004947898, "MEAN_MOTION_DOT": 0.00013267, "MEAN_MOTION_DDOT": 0}, "tle": {"line1": "1 58663U 23208D   25344.58261683  .00013267  00000+0  49479-3 0  9994", "line2": "2 58663  97.4381  95.6840 0002729 298.5008  61.5956 15.27544598108502"}}, "geometry": {"type": "Point", "coordinates": [99.89306726732227, -27.426476906384842]}}, {"type": "Feature", "properties": {"norad_id": 58700, "name": "TIANMU-1 15", "group": "weather", "lat": 58.054598864407176, "lon": -1.4825522593165168, "alt_km": 489.9166164401249, "timestamp": "2025-12-10T21:43:21.729823+00:00", "meta": {"OBJECT_NAME": "TIANMU-1 15", "OBJECT_ID": "2024-004A", "EPOCH": "2025-12-10T14:53:33.406656", "MEAN_MOTION": 15.2463417, "ECCENTRICITY": 0.00052733, "INCLINATION": 97.4631, "RA_OF_ASC_NODE": 166.098, "ARG_OF_PERICENTER": 307.6589, "MEAN_ANOMALY": 52.417, "EPHEMERIS_TYPE": 0, "CLASSIFICATION_TYPE": "U", "NORAD_CAT_ID": 58700, "ELEMENT_SET_NO": 999, "REV_AT_EPOCH": 10702, "BSTAR": 0.0004048606, "MEAN_MOTION_DOT": 9.929e-05, "MEAN_MOTION_DDOT": 0}, "tle": {"line1": "1 58700U 24004A   25344.62052554  .00009929  00000+0  40486-3 0  9990", "line2": "2 58700  97.4631 166.0980 0005273 307.6589  52.4170 15.24634170107029"}}, "geometry": {"type": "Point", "coordinates": [-1.4825522593165168, 58.054598864407176]}}, {"type": "Feature", "properties": {"norad_id": 58701, "name": "TIANMU-1 16", "group": "weather", "lat": -24.380931346531074, "lon": -17.63113927588995, "alt_km": 498.8105447627695, "timestamp": "2025-12-10T21:43:21.729833+00:00", "meta": {"OBJECT_NAME": "TIANMU-1 16", "OBJECT_ID": "2024-004B", "EPOCH": "2025-12-10T14:31:34.800960", "MEAN_MOTION": 15.243859, "ECCENTRICITY": 0.00045778, "INCLINATION": 97.4571, "RA_OF_ASC_NODE": 165.4738, "ARG_OF_PERICENTER": 305.8403, "MEAN_ANOMALY": 54.2409, "EPHEMERIS_TYPE": 0, "CLASSIFICATION_TYPE": "U", "NORAD_CAT_ID": 58701, "ELEMENT_SET_NO": 999, "REV_AT_EPOCH": 10702, "BSTAR": 0.00042607104, "MEAN_MOTION_DOT": 0.00010375, "MEAN_MOTION_DDOT": 0}, "tle": {"line1": "1 58701U 24004B   25344.60526390  .00010375  00000+0  42607-3 0  9997", "line2": "2 58701  97.4571 165.4738 0004577 305.8403  54.2409 15.24385900107027"}}, "geometry": {"type": "Point", "coordinates": [-17.63113927588995, -24.380931346531074]}}, {"type": "Feature", "properties": {"norad_id": 58702, "name": "TIANMU-1 17", "group": "weather", "lat": -69.93396261673507, "lon": -172.79529223147057, "alt_km": 497.32295390133095, "timestamp": "2025-12-10T21:43:21.729843+00:00", "meta": {"OBJECT_NAME": "TIANMU-1 17", "OBJECT_ID": "2024-004C", "EPOCH": "2025-12-10T15:44:00.561120", "MEAN_MOTION": 15.24431785, "ECCENTRICITY": 0.00037998, "INCLINATION": 97.4605, "RA_OF_ASC_NODE": 165.9328, "ARG_OF_PERICENTER": 309.5588, "MEAN_ANOMALY": 50.5313, "EPHEMERIS_TYPE": 0, "CLASSIFICATION_TYPE": "U", "NORAD_CAT_ID": 58702, "ELEMENT_SET_NO": 999, "REV_AT_EPOCH": 10702, "BSTAR": 0.00044004165, "MEAN_MOTION_DOT": 0.00010732, "MEAN_MOTION_DDOT": 0}, "tle": {"line1": "1 58702U 24004C   25344.65556205  .00010732  00000+0  44004-3 0  9991", "line2": "2 58702  97.4605 165.9328 0003799 309.5588  50.5313 15.24431785107022"}}, "geometry": {"type": "Point", "coordinates": [-172.79529223147057, -69.93396261673507]}}, {"type": "Feature", "properties": {"norad_id": 58703, "name": "TIANMU-1 18", "group": "weather", "lat": 20.08157843854101, "lon": 163.6296592845197, "alt_km": 491.95352677879237, "timestamp": "2025-12-10T21:43:21.729854+00:00", "meta": {"OBJECT_NAME": "TIANMU-1 18", "OBJECT_ID": "2024-004D", "EPOCH": "2025-12-10T15:19:57.433152", "MEAN_MOTION": 15.24420206, "ECCENTRICITY": 0.00031344, "INCLINATION": 97.4622, "RA_OF_ASC_NODE": 166.1111, "ARG_OF_PERICENTER": 310.4408, "MEAN_ANOMALY": 49.6556, "EPHEMERIS_TYPE": 0, "CLASSIFICATION_TYPE": "U", "NORAD_CAT_ID": 58703, "ELEMENT_SET_NO": 999, "REV_AT_EPOCH": 10702, "BSTAR": 0.00041085046, "MEAN_MOTION_DOT": 0.0001001, "MEAN_MOTION_DDOT": 0}, "tle": {"line1": "1 58703U 24004D   25344.63885918  .00010010  00000+0  41085-3 0  9991", "line2": "2 58703  97.4622 166.1111 0003134 310.4408  49.6556 15.24420206107024"}}, "geometry": {"type": "Point", "coordinates": [163.6296592845197, 20.08157843854101]}}, {"type": "Feature", "properties": {"norad_id": 58990, "name": "INSAT-3DS", "group": "weather", "lat": 0.018449874631924743, "lon": 127.767997075983, "alt_km": 35791.747242495156, "timestamp": "2025-12-10T21:43:21.729865+00:00", "meta": {"OBJECT_NAME": "INSAT-3DS", "OBJECT_ID": "2024-033A", "EPOCH": "2025-12-10T13:45:05.426208", "MEAN_MOTION": 1.00269606, "ECCENTRICITY": 0.0001592, "INCLINATION": 0.034, "RA_OF_ASC_NODE": 124.782, "ARG_OF_PERICENTER": 141.4662, "MEAN_ANOMALY": 101.6427, "EPHEMERIS_TYPE": 0, "CLASSIFICATION_TYPE": "U", "NORAD_CAT_ID": 58990, "ELEMENT_SET_NO": 999, "REV_AT_EPOCH": 4517, "BSTAR": 0, "MEAN_MOTION_DOT": -1.51e-06, "MEAN_MOTION_DDOT": 0}, "tle": {"line1": "1 58990U 24033A   25344.57297947 -.00000151  00000+0  00000+0 0  9997", "line2": "2 58990   0.0340 124.7820 0001592 141.4662 101.6427  1.00269606 45173"}}, "geometry": {"type": "Point", "coordinates": [127.767997075983, 0.018449874631924743]}}, {"type": "Feature", "properties": {"norad_id": 59051, "name": "METEOR-M2 4", "group": "weather", "lat": 31.531541362926216, "lon": 127.21852786702438, "alt_km": 819.5909639975125, "timestamp": "2025-12-10T21:43:21.729876+00:00", "meta": {"OBJECT_NAME": "METEOR-M2 4", "OBJECT_ID": "2024-039A", "EPOCH": "2025-12-10T14:16:35.930784", "MEAN_MOTION": 14.22400745, "ECCENTRICITY": 0.00071564, "INCLINATION": 98.6763, "RA_OF_ASC_NODE": 301.5374, "ARG_OF_PERICENTER": 4.6741, "MEAN_ANOMALY": 355.4503, "EPHEMERIS_TYPE": 0, "CLASSIFICATION_TYPE": "U", "NORAD_CAT_ID": 59051, "ELEMENT_SET_NO": 999, "REV_AT_EPOCH": 9245, "BSTAR": 5.8895741e-05, "MEAN_MOTION_DOT": 8.8e-07, "MEAN_MOTION_DDOT": 0}, "tle": {"line1": "1 59051U 24039A   25344.59486031  .00000088  00000+0  58896-4 0  9997", "line2": "2 59051  98.6763 301.5374 0007156   4.6741 355.4503 14.22400745 92459"}}, "geometry": {"type": "Point", "coordinates": [127.21852786702438, 31.531541362926216]}}, {"type": "Feature", "properties": {"norad_id": 60133, "name": "GOES 19", "group": "weather", "lat": 0.0010655703153691811, "lon": -29.465720457852974, "alt_km": 35781.04785318624, "timestamp": "2025-12-10T21:43:21.729889+00:00", "meta": {"OBJECT_NAME": "GOES 19", "OBJECT_ID": "2024-119A", "EPOCH": "2025-12-10T07:51:04.495968", "MEAN_MOTION": 1.00271256, "ECCENTRICITY": 0.00013501, "INCLINATION": 0.0012, "RA_OF_ASC_NODE": 239.7895, "ARG_OF_PERICENTER": 67.9696, "MEAN_ANOMALY": 174.1323, "EPHEMERIS_TYPE": 0, "CLASSIFICATION_TYPE": "U", "NORAD_CAT_ID": 60133, "ELEMENT_SET_NO": 999, "REV_AT_EPOCH": 507, "BSTAR": 0, "MEAN_MOTION_DOT": -2.45e-06, "MEAN_MOTION_DDOT": 0}, "tle": {"line1": "1 60133U 24119A   25344.32713537 -.00000245  00000+0  00000+0 0  9999", "line2": "2 60133   0.0012 239.7895 0001350  67.9696 174.1323  1.00271256  5070"}}, "geometry": {"type": "Point", "coordinates": [-29.465720457852974, 0.0010655703153691811]}}, {"type": "Feature", "properties": {"norad_id": 65815, "name": "FENGYUN 3H", "group": "weather", "lat": 42.596803088431685, "lon": -83.51820249084018, "alt_km": 821.8171642127654, "timestamp": "2025-12-10T21:43:21.729900+00:00", "meta": {"OBJECT_NAME": "FENGYUN 3H", "OBJECT_ID": "2025-219A", "EPOCH": "2025-12-10T13:03:49.900320", "MEAN_MOTION": 14.19903779, "ECCENTRICITY": 6.015e-05, "INCLINATION": 98.6582, "RA_OF_ASC_NODE": 284.1824, "ARG_OF_PERICENTER": 87.6391, "MEAN_ANOMALY": 272.4855, "EPHEMERIS_TYPE": 0, "CLASSIFICATION_TYPE": "U", "NORAD_CAT_ID": 65815, "ELEMENT_SET_NO": 999, "REV_AT_EPOCH": 1061, "BSTAR": 0.00010738136, "MEAN_MOTION_DOT": 1.85e-06, "MEAN_MOTION_DDOT": 0}, "tle": {"line1": "1 65815U 25219A   25344.54432755  .00000185  00000+0  10738-3 0  9992", "line2": "2 65815  98.6582 284.1824 0000601  87.6391 272.4855 14.19903779 10616"}}, "geometry": {"type": "Point", "coordinates": [-83.51820249084018, 42.596803088431685]}}]}